NORAD_CAT_ID,OBJECT_NAME,OBJECT_TYPE,EPOCH,MEAN_MOTION,ECCENTRICITY,INCLINATION,RA_OF_ASC_NODE,ARG_OF_PERICENTER,MEAN_ANOMALY,BSTAR,MEAN_MOTION_DOT,MEAN_MOTION_DDOT,TLE_LINE0,TLE_LINE1,TLE_LINE2,SEMIMAJOR_AXIS,PERIOD,APOGEE,PERIGEE,DECAYED
55778.0,STARLINK-5816,PAYLOAD,2023-10-30 20:47:26,14.98323754,0.000263,70.001,234.7518,264.7916,95.2943,-0.00011451,-1.459e-05,0.0,0 STARLINK-5816,1 55778U 23028AP  23303.86628137 -.00001459  00000-0 -11451-3 0  9995,2 55778  70.0010 234.7518 0002630 264.7916  95.2943 14.98323754 37590,6950.212,96.107,573.905,570.249,0.0
55778.0,STARLINK-5816,PAYLOAD,2023-10-30 22:23:34,14.98317246,0.0002487,70.0011,234.5828,258.5132,101.5748,4.9046e-05,4.92e-06,0.0,0 STARLINK-5816,1 55778U 23028AP  23303.93304051  .00000492  00000-0  49046-4 0  9995,2 55778  70.0011 234.5828 0002487 258.5132 101.5748 14.98317246 37609,6950.232,96.108,573.826,570.369,0.0
55778.0,STARLINK-5816,PAYLOAD,2023-10-31 04:48:06,14.98328143,0.000224,70.0012,233.9099,248.2023,111.8898,-7.2022e-05,-9.52e-06,0.0,0 STARLINK-5816,1 55778U 23028AP  23304.20007789 -.00000952  00000-0 -72022-4 0  9997,2 55778  70.0012 233.9099 0002240 248.2023 111.8898 14.98328143 37647,6950.199,96.107,573.62,570.507,0.0
55778.0,STARLINK-5816,PAYLOAD,2023-10-31 12:48:47,14.98335832,0.000236,70.0015,233.0669,277.973,82.1162,-0.00020257,-2.509e-05,0.0,0 STARLINK-5816,1 55778U 23028AP  23304.53387746 -.00002509  00000-0 -20257-3 0  9999,2 55778  70.0015 233.0669 0002360 277.9730  82.1162 14.98335832 37693,6950.175,96.107,573.68,570.4,0.0
55778.0,STARLINK-5816,PAYLOAD,2023-10-31 22:25:34,14.98335752,0.0002527,70.001,232.0582,270.9912,89.0958,-2.405e-05,-3.8e-06,0.0,0 STARLINK-5816,1 55778U 23028AP  23304.93443210 -.00000380  00000-0 -24050-4 0  9993,2 55778  70.0010 232.0582 0002527 270.9912  89.0958 14.98335752 37758,6950.175,96.107,573.796,570.284,0.0
55778.0,STARLINK-5816,PAYLOAD,2023-11-01 04:50:06,14.9833293,0.000248,70.0012,231.3842,261.3029,98.785,0.00013493,1.517e-05,0.0,0 STARLINK-5816,1 55778U 23028AP  23305.20146902  .00001517  00000-0  13493-3 0  9991,2 55778  70.0012 231.3842 0002480 261.3029  98.7850 14.98332930 37799,6950.184,96.107,573.772,570.325,0.0
55778.0,STARLINK-5816,PAYLOAD,2023-11-01 12:50:47,14.98329103,0.000219,70.0025,230.5424,277.2915,82.7995,4.6595e-05,4.63e-06,0.0,0 STARLINK-5816,1 55778U 23028AP  23305.53527540  .00000463  00000-0  46595-4 0  9997,2 55778  70.0025 230.5424 0002190 277.2915  82.7995 14.98329103 37845,6950.196,96.107,573.583,570.539,0.0
55778.0,STARLINK-5816,PAYLOAD,2023-11-01 22:27:36,14.983253,0.0002833,70.0009,229.5324,271.7838,88.2997,8.2434e-05,8.91e-06,0.0,0 STARLINK-5816,1 55778U 23028AP  23305.93583465  .00000891  00000-0  82434-4 0  9996,2 55778  70.0009 229.5324 0002833 271.7838  88.2997 14.98325300 37906,6950.207,96.107,574.041,570.103,0.0
55778.0,STARLINK-5816,PAYLOAD,2023-11-02 12:52:48,14.98330534,0.000264,70.0017,228.0174,270.1581,89.9275,3.4863e-06,-5.1e-07,0.0,0 STARLINK-5816,1 55778U 23028AP  23306.53667345 -.00000051  00000-0  34863-5 0  9996,2 55778  70.0017 228.0174 0002640 270.1581  89.9275 14.98330534 37997,6950.191,96.107,573.891,570.221,0.0
55778.0,STARLINK-5816,PAYLOAD,2023-11-02 20:53:28,14.98331994,0.0002747,70.0011,227.1756,270.6173,89.4671,-1.8854e-05,-3.18e-06,0.0,0 STARLINK-5816,1 55778U 23028AP  23306.87047251 -.00000318  00000-0 -18854-4 0  9999,2 55778  70.0011 227.1756 0002747 270.6173  89.4671 14.98331994 38040,6950.187,96.107,573.961,570.143,0.0
55778.0,STARLINK-5816,PAYLOAD,2023-11-03 04:54:08,14.98336222,0.0002813,70.0011,226.3344,272.7036,87.3801,-1.7771e-05,-3.05e-06,0.0,0 STARLINK-5816,1 55778U 23028AP  23307.20426911 -.00000305  00000-0 -17771-4 0  9994,2 55778  70.0011 226.3344 0002813 272.7036  87.3801 14.98336222 38095,6950.174,96.107,573.994,570.084,0.0
55778.0,STARLINK-5816,PAYLOAD,2023-11-03 20:55:29,14.98329,0.0002702,70.0015,224.6518,274.9316,85.1534,1.0976e-05,3.8e-07,0.0,0 STARLINK-5816,1 55778U 23028AP  23307.87187204  .00000038  00000-0  10976-4 0  9997,2 55778  70.0015 224.6518 0002702 274.9316  85.1534 14.98329000 38191,6950.196,96.107,573.939,570.183,0.0
55778.0,STARLINK-5816,PAYLOAD,2023-11-03 22:31:37,14.98329063,0.0002689,70.0014,224.4836,275.3157,84.7695,2.6517e-06,-6.1e-07,0.0,0 STARLINK-5816,1 55778U 23028AP  23307.93863230 -.00000061  00000-0  26517-5 0  9990,2 55778  70.0014 224.4836 0002689 275.3157  84.7695 14.98329063 38207,6950.196,96.107,573.93,570.192,0.0
55778.0,STARLINK-5816,PAYLOAD,2023-11-04 04:56:09,14.9833432,0.0002641,70.0014,223.8118,268.1429,91.9428,1.7707e-05,1.18e-06,0.0,0 STARLINK-5816,1 55778U 23028AP  23308.20566760  .00000118  00000-0  17707-4 0  9991,2 55778  70.0014 223.8118 0002641 268.1429  91.9428 14.98334320 38243,6950.18,96.107,573.88,570.209,0.0
55778.0,STARLINK-5816,PAYLOAD,2023-11-04 11:20:42,14.98326081,0.0002519,70.0026,223.1368,276.28,83.8072,-5.5439e-05,-7.54e-06,0.0,0 STARLINK-5816,1 55778U 23028AP  23308.47271537 -.00000754  00000-0 -55439-4 0  9997,2 55778  70.0026 223.1368 0002519 276.2800  83.8072 14.98326081 38287,6950.205,96.107,573.821,570.319,0.0
55778.0,STARLINK-5816,PAYLOAD,2023-11-04 20:57:30,14.98325823,0.0002808,70.0013,222.1273,275.2813,84.8025,-5.2365e-05,-7.18e-06,0.0,0 STARLINK-5816,1 55778U 23028AP  23308.87327525 -.00000718  00000-0 -52365-4 0  9995,2 55778  70.0013 222.1273 0002808 275.2813  84.8025 14.98325823 38340,6950.206,96.107,574.022,570.119,0.0
55778.0,STARLINK-5816,PAYLOAD,2023-11-04 22:33:38,14.98326663,0.0002798,70.0008,221.959,275.7829,84.3011,-3.3502e-05,-4.93e-06,0.0,0 STARLINK-5816,1 55778U 23028AP  23308.94003400 -.00000493  00000-0 -33502-4 0  9998,2 55778  70.0008 221.9590 0002798 275.7829  84.3011 14.98326663 38357,6950.203,96.107,574.013,570.124,0.0
55778.0,STARLINK-5816,PAYLOAD,2023-11-05 03:22:02,14.98331356,0.0002569,70.001,221.454,270.6558,89.4306,4.6033e-05,4.56e-06,0.0,0 STARLINK-5816,1 55778U 23028AP  23309.14030908  .00000456  00000-0  46033-4 0  9994,2 55778  70.0010 221.4540 0002569 270.6558  89.4306 14.98331356 38380,6950.189,96.107,573.839,570.268,0.0
55778.0,STARLINK-5816,PAYLOAD,2023-11-05 11:22:42,14.98340292,0.0002652,70.0012,220.6128,275.1187,84.967,3.9185e-05,3.75e-06,0.0,0 STARLINK-5816,1 55778U 23028AP  23309.47410234  .00000375  00000-0  39185-4 0  9994,2 55778  70.0012 220.6128 0002652 275.1187  84.9670 14.98340292 38435,6950.161,96.106,573.869,570.183,0.0
55778.0,STARLINK-5816,PAYLOAD,2023-11-05 22:35:38,14.98345442,0.0002989,70.0,219.4338,270.1944,89.8873,0.000128,1.435e-05,0.0,0 STARLINK-5816,1 55778U 23028AP  23309.94141266  .00001435  00000-0  12800-3 0  9994,2 55778  70.0000 219.4338 0002989 270.1944  89.8873 14.98345442 38509,6950.145,96.106,574.088,569.933,0.0
55778.0,STARLINK-5816,PAYLOAD,2023-11-06 03:24:00,14.98368799,0.0002781,70.0006,218.9297,265.6568,94.4273,0.00035104,4.102e-05,0.0,0 STARLINK-5816,1 55778U 23028AP  23310.14166841  .00004102  00000-0  35104-3 0  9990,2 55778  70.0006 218.9297 0002781 265.6568  94.4273 14.98368799 38533,6950.073,96.105,573.871,570.005,0.0
55778.0,STARLINK-5816,PAYLOAD,2023-11-06 11:24:42,14.9834324,0.0002548,70.001,218.0876,283.433,76.6545,1.6845e-05,1.08e-06,0.0,0 STARLINK-5816,1 55778U 23028AP  23310.47549066  .00000108  00000-0  16845-4 0  9994,2 55778  70.0010 218.0876 0002548 283.4330  76.6545 14.98343240 38581,6950.152,96.106,573.788,570.246,0.0
55778.0,STARLINK-5816,PAYLOAD,2023-11-06 19:25:25,14.98301514,0.0002932,70.0006,217.2462,278.3229,81.7598,-0.00030817,-3.765e-05,0.0,0 STARLINK-5816,1 55778U 23028AP  23310.80932524 -.00003765  00000-0 -30817-3 0  9994,2 55778  70.0006 217.2462 0002932 278.3229  81.7598 14.98301514 38634,6950.281,96.109,574.184,570.108,0.0
55778.0,STARLINK-5816,PAYLOAD,2023-11-06 22:37:41,14.98300418,0.0003019,70.0006,216.9089,278.5014,81.5803,-0.00024675,-3.034e-05,0.0,0 STARLINK-5816,1 55778U 23028AP  23310.94284587 -.00003034  00000-0 -24675-3 0  9992,2 55778  70.0006 216.9089 0003019 278.5014  81.5803 14.98300418 38657,6950.284,96.109,574.248,570.051,0.0
55778.0,STARLINK-5816,PAYLOAD,2023-11-07 03:26:05,14.98310104,0.0002774,70.0005,216.4042,270.1204,89.9637,-0.00021627,-2.671e-05,0.0,0 STARLINK-5816,1 55778U 23028AP  23311.14312106 -.00002671  00000-0 -21627-3 0  9994,2 55778  70.0005 216.4042 0002774 270.1204  89.9637 14.98310104 38689,6950.254,96.108,574.047,570.191,0.0
55778.0,STARLINK-5816,PAYLOAD,2023-11-07 11:26:45,14.98319881,0.0002943,70.0004,215.5631,276.0085,84.0738,-0.00024212,-2.98e-05,0.0,0 STARLINK-5816,1 55778U 23028AP  23311.47691788 -.00002980  00000-0 -24212-3 0  9992,2 55778  70.0004 215.5631 0002943 276.0085  84.0738 14.98319881 38737,6950.224,96.108,574.135,570.044,0.0
55778.0,STARLINK-5816,PAYLOAD,2023-11-08 03:28:05,14.98327324,0.0002941,70.0004,213.8814,273.9698,86.1125,-3.9756e-05,-5.67e-06,0.0,0 STARLINK-5816,1 55778U 23028AP  23312.14450977 -.00000567  00000-0 -39756-4 0  9999,2 55778  70.0004 213.8814 0002941 273.9698  86.1125 14.98327324 38830,6950.201,96.107,574.11,570.022,0.0
55778.0,STARLINK-5816,PAYLOAD,2023-11-08 22:41:41,14.98317601,0.0002736,70.001,211.8618,266.7765,93.3081,0.00037157,4.342e-05,0.0,0 STARLINK-5816,1 55778U 23028AP  23312.94562497  .00004342  00000-0  37157-3 0  9993,2 55778  70.0010 211.8618 0002736 266.7765  93.3081 14.98317601 38955,6950.231,96.108,573.998,570.195,0.0
55778.0,STARLINK-5816,PAYLOAD,2023-11-09 03:30:05,14.98326156,0.0003209,70.0002,211.3568,279.73,80.3497,0.00038041,4.448e-05,0.0,0 STARLINK-5816,1 55778U 23028AP  23313.14590104  .00004448  00000-0  38041-3 0  9992,2 55778  70.0002 211.3568 0003209 279.7300  80.3497 14.98326156 38985,6950.205,96.107,574.3,569.839,0.0
55778.0,STARLINK-5816,PAYLOAD,2023-11-09 19:31:27,14.98324238,0.000276,70.002,209.6755,264.7479,95.3365,0.00013405,1.507e-05,0.0,0 STARLINK-5816,1 55778U 23028AP  23313.81351055  .00001507  00000-0  13405-3 0  9996,2 55778  70.0020 209.6755 0002760 264.7479  95.3365 14.98324238 39086,6950.211,96.107,573.994,570.157,0.0
